{"fetched_at":"2026-07-12T17:32:44.302Z","source":"https://celestrak.org/NORAD/elements/gp.php?NAME=GHGSAT&FORMAT=JSON","constellation":"ghgsat","records":[{"OBJECT_NAME":"GHGSAT-C1","OBJECT_ID":"2020-061G","EPOCH":"2026-07-12T11:49:52.667616","CLASSIFICATION_TYPE":"U","MEAN_MOTION":15.73292319,"ECCENTRICITY":0.0000888,"INCLINATION":97.2102,"RA_OF_ASC_NODE":279.4818,"ARG_OF_PERICENTER":179.9074,"MEAN_ANOMALY":180.219,"EPHEMERIS_TYPE":0,"NORAD_CAT_ID":46278,"ELEMENT_SET_NO":999,"REV_AT_EPOCH":32745,"BSTAR":0.00019991,"MEAN_MOTION_DOT":0.0002745,"MEAN_MOTION_DDOT":0},{"OBJECT_NAME":"GHGSAT-C2","OBJECT_ID":"2021-006DA","EPOCH":"2026-07-12T01:39:38.149920","CLASSIFICATION_TYPE":"U","MEAN_MOTION":15.38084055,"ECCENTRICITY":0.00067918,"INCLINATION":97.2139,"RA_OF_ASC_NODE":239.9086,"ARG_OF_PERICENTER":83.8688,"MEAN_ANOMALY":276.3331,"EPHEMERIS_TYPE":0,"NORAD_CAT_ID":47509,"ELEMENT_SET_NO":999,"REV_AT_EPOCH":30367,"BSTAR":0.00010444464,"MEAN_MOTION_DOT":0.00003836,"MEAN_MOTION_DDOT":0},{"OBJECT_NAME":"GHGSAT-C3","OBJECT_ID":"2022-057F","EPOCH":"2026-07-12T11:24:14.237856","CLASSIFICATION_TYPE":"U","MEAN_MOTION":15.3465799,"ECCENTRICITY":0.0006531,"INCLINATION":97.6621,"RA_OF_ASC_NODE":340.0882,"ARG_OF_PERICENTER":43.7391,"MEAN_ANOMALY":316.4368,"EPHEMERIS_TYPE":0,"NORAD_CAT_ID":52737,"ELEMENT_SET_NO":999,"REV_AT_EPOCH":22941,"BSTAR":0.0001174,"MEAN_MOTION_DOT":0.00003859,"MEAN_MOTION_DDOT":0},{"OBJECT_NAME":"GHGSAT-C5","OBJECT_ID":"2022-057N","EPOCH":"2026-07-12T12:20:50.139744","CLASSIFICATION_TYPE":"U","MEAN_MOTION":15.34635238,"ECCENTRICITY":0.0007221,"INCLINATION":97.6707,"RA_OF_ASC_NODE":341.7322,"ARG_OF_PERICENTER":40.5646,"MEAN_ANOMALY":319.6133,"EPHEMERIS_TYPE":0,"NORAD_CAT_ID":52744,"ELEMENT_SET_NO":999,"REV_AT_EPOCH":22942,"BSTAR":0.00011926,"MEAN_MOTION_DOT":0.00003919,"MEAN_MOTION_DDOT":0},{"OBJECT_NAME":"GHGSAT-C4","OBJECT_ID":"2022-057Q","EPOCH":"2026-07-12T11:54:02.850912","CLASSIFICATION_TYPE":"U","MEAN_MOTION":15.34645915,"ECCENTRICITY":0.0006417,"INCLINATION":97.6548,"RA_OF_ASC_NODE":338.9153,"ARG_OF_PERICENTER":28.3007,"MEAN_ANOMALY":331.8583,"EPHEMERIS_TYPE":0,"NORAD_CAT_ID":52746,"ELEMENT_SET_NO":999,"REV_AT_EPOCH":22942,"BSTAR":0.00012747,"MEAN_MOTION_DOT":0.00004196,"MEAN_MOTION_DDOT":0},{"OBJECT_NAME":"GHGSAT-C8","OBJECT_ID":"2023-054J","EPOCH":"2026-07-12T11:28:01.805088","CLASSIFICATION_TYPE":"U","MEAN_MOTION":15.53715991,"ECCENTRICITY":0.0003307,"INCLINATION":97.2969,"RA_OF_ASC_NODE":103.1422,"ARG_OF_PERICENTER":12.2945,"MEAN_ANOMALY":347.8388,"EPHEMERIS_TYPE":0,"NORAD_CAT_ID":56186,"ELEMENT_SET_NO":999,"REV_AT_EPOCH":18236,"BSTAR":0.00018782,"MEAN_MOTION_DOT":0.00011923,"MEAN_MOTION_DDOT":0},{"OBJECT_NAME":"GHGSAT-C6","OBJECT_ID":"2023-054AC","EPOCH":"2026-07-12T12:12:03.745152","CLASSIFICATION_TYPE":"U","MEAN_MOTION":15.53692686,"ECCENTRICITY":0.0003702,"INCLINATION":97.3032,"RA_OF_ASC_NODE":103.8742,"ARG_OF_PERICENTER":321.6985,"MEAN_ANOMALY":38.4005,"EPHEMERIS_TYPE":0,"NORAD_CAT_ID":56204,"ELEMENT_SET_NO":999,"REV_AT_EPOCH":18238,"BSTAR":0.00016079,"MEAN_MOTION_DOT":0.00010183,"MEAN_MOTION_DDOT":0},{"OBJECT_NAME":"GHGSAT-C7","OBJECT_ID":"2023-054AH","EPOCH":"2026-07-12T12:01:53.400000","CLASSIFICATION_TYPE":"U","MEAN_MOTION":15.50406969,"ECCENTRICITY":0.0005192,"INCLINATION":97.298,"RA_OF_ASC_NODE":102.2002,"ARG_OF_PERICENTER":316.9344,"MEAN_ANOMALY":43.1501,"EPHEMERIS_TYPE":0,"NORAD_CAT_ID":56209,"ELEMENT_SET_NO":999,"REV_AT_EPOCH":18231,"BSTAR":0.00012646,"MEAN_MOTION_DOT":0.00007095,"MEAN_MOTION_DDOT":0},{"OBJECT_NAME":"GHGSAT-C12","OBJECT_ID":"2025-135B","EPOCH":"2026-07-12T10:56:07.895616","CLASSIFICATION_TYPE":"U","MEAN_MOTION":15.20434928,"ECCENTRICITY":0.0006467,"INCLINATION":97.4768,"RA_OF_ASC_NODE":308.043,"ARG_OF_PERICENTER":88.5864,"MEAN_ANOMALY":271.6112,"EPHEMERIS_TYPE":0,"NORAD_CAT_ID":64529,"ELEMENT_SET_NO":999,"REV_AT_EPOCH":5866,"BSTAR":0.000096404,"MEAN_MOTION_DOT":0.00002034,"MEAN_MOTION_DDOT":0},{"OBJECT_NAME":"GHGSAT-C13","OBJECT_ID":"2025-135W","EPOCH":"2026-07-12T10:40:56.271072","CLASSIFICATION_TYPE":"U","MEAN_MOTION":15.21384864,"ECCENTRICITY":0.0001995,"INCLINATION":97.4797,"RA_OF_ASC_NODE":308.6427,"ARG_OF_PERICENTER":70.4342,"MEAN_ANOMALY":289.7109,"EPHEMERIS_TYPE":0,"NORAD_CAT_ID":64548,"ELEMENT_SET_NO":999,"REV_AT_EPOCH":5869,"BSTAR":0.00014835,"MEAN_MOTION_DOT":0.00003256,"MEAN_MOTION_DDOT":0}]}
