GHGSAT-C1               
1 46278U 20061G   26193.49297069  .00027450  00000+0  19991-3 0  9992
2 46278  97.2102 279.4818 0000888 179.9074 180.2190 15.73292319327454
GHGSAT-C2               
1 47509U 21006DA  26193.06919155  .00003836  00000+0  10444-3 0  9996
2 47509  97.2139 239.9086 0006791  83.8688 276.3331 15.38084055303672
GHGSAT-C3               
1 52737U 22057F   26193.47516479  .00003859  00000+0  11740-3 0  9994
2 52737  97.6621 340.0882 0006531  43.7391 316.4368 15.34657990229412
GHGSAT-C5               
1 52744U 22057N   26193.51446921  .00003919  00000+0  11926-3 0  9994
2 52744  97.6707 341.7322 0007221  40.5646 319.6133 15.34635238229424
GHGSAT-C4               
1 52746U 22057Q   26193.49586633  .00004196  00000+0  12747-3 0  9998
2 52746  97.6548 338.9153 0006417  28.3007 331.8583 15.34645915229428
GHGSAT-C8               
1 56186U 23054J   26193.47779867  .00011923  00000+0  18782-3 0  9990
2 56186  97.2969 103.1422 0003307  12.2945 347.8388 15.53715991182366
GHGSAT-C6               
1 56204U 23054AC  26193.50837668  .00010183  00000+0  16079-3 0  9993
2 56204  97.3032 103.8742 0003702 321.6985  38.4005 15.53692686182387
GHGSAT-C7               
1 56209U 23054AH  26193.50131250  .00007095  00000+0  12646-3 0  9996
2 56209  97.2980 102.2002 0005192 316.9344  43.1501 15.50406969182317
GHGSAT-C12              
1 64529U 25135B   26193.45564694  .00002034  00000+0  96404-4 0  9991
2 64529  97.4768 308.0430 0006467  88.5864 271.6112 15.20434928 58662
GHGSAT-C13              
1 64548U 25135W   26193.44509573  .00003256  00000+0  14835-3 0  9990
2 64548  97.4797 308.6427 0001995  70.4342 289.7109 15.21384864 58692
